start=new Date('2022-02-22T00:00:00.000Z').valueOf();
sats=[{"PERIAPSIS":"546.301","OBJECT_TYPE":"PAYLOAD","REF_FRAME":"TEME","ECCENTRICITY":"0.00012680","MEAN_MOTION_DDOT":"0.0000000000000","NORAD_CAT_ID":"45679","DECAY_DATE":null,"CLASSIFICATION_TYPE":"U","BSTAR":"0.00000296200000","EPHEMERIS_TYPE":"0","APOAPSIS":"548.057","ARG_OF_PERICENTER":"75.3559","SITE":"AFETR","TLE_LINE1":"1 45679U 20035Y   22052.82737995 -.00000237  00000-0  29620-5 0  9999","SEMIMAJOR_AXIS":"6925.314","OBJECT_ID":"2020-035Y","TIME_SYSTEM":"UTC","MEAN_ANOMALY":"284.7570","ELEMENT_SET_NO":"999","LAUNCH_DATE":"2020-06-04","REV_AT_EPOCH":"9627","OBJECT_NAME":"STARLINK-1394","GP_ID":"196569772","MEAN_ELEMENT_THEORY":"SGP4","INCLINATION":"53.0545","FILE":"3312023","RA_OF_ASC_NODE":"206.5181","MEAN_MOTION_DOT":"-0.00000237","COUNTRY_CODE":"US","CENTER_NAME":"EARTH","TLE_LINE2":"2 45679  53.0545 206.5181 0001268  75.3559 284.7570 15.06411372 96276","RCS_SIZE":"LARGE","EPOCH":"2022-02-21T19:51:25.627680","PERIOD":"95.591","MEAN_MOTION":"15.06411372"},{"INCLINATION":"53.0536","FILE":"3312023","MEAN_ELEMENT_THEORY":"SGP4","RA_OF_ASC_NODE":"207.0802","MEAN_MOTION_DOT":"0.00000761","TLE_LINE2":"2 45680  53.0536 207.0802 0001392  66.1541 293.9594 15.06397968 96240","CENTER_NAME":"EARTH","COUNTRY_CODE":"US","RCS_SIZE":"LARGE","PERIOD":"95.592","EPOCH":"2022-02-21T16:50:59.789760","MEAN_MOTION":"15.06397968","OBJECT_TYPE":"PAYLOAD","REF_FRAME":"TEME","PERIAPSIS":"546.256","MEAN_MOTION_DDOT":"0.0000000000000","ECCENTRICITY":"0.00013920","EPHEMERIS_TYPE":"0","APOAPSIS":"548.184","DECAY_DATE":null,"NORAD_CAT_ID":"45680","BSTAR":"0.00006998200000","CLASSIFICATION_TYPE":"U","SITE":"AFETR","TLE_LINE1":"1 45680U 20035Z   22052.70208090  .00000761  00000-0  69982-4 0  9992","ARG_OF_PERICENTER":"66.1541","MEAN_ANOMALY":"293.9594","SEMIMAJOR_AXIS":"6925.355","TIME_SYSTEM":"UTC","OBJECT_ID":"2020-035Z","LAUNCH_DATE":"2020-06-04","REV_AT_EPOCH":"9624","OBJECT_NAME":"STARLINK-1395","ELEMENT_SET_NO":"999","GP_ID":"196571022"},{"TLE_LINE1":"1 45681U 20035AA  22052.83107356  .00000889  00000-0  78532-4 0  9992","SITE":"AFETR","ARG_OF_PERICENTER":"68.8402","EPHEMERIS_TYPE":"0","APOAPSIS":"548.166","DECAY_DATE":null,"NORAD_CAT_ID":"45681","CLASSIFICATION_TYPE":"U","BSTAR":"0.00007853200000","MEAN_MOTION_DDOT":"0.0000000000000","ECCENTRICITY":"0.00013860","REF_FRAME":"TEME","OBJECT_TYPE":"PAYLOAD","PERIAPSIS":"546.246","GP_ID":"196571277","LAUNCH_DATE":"2020-06-04","REV_AT_EPOCH":"9627","OBJECT_NAME":"STARLINK-1396","ELEMENT_SET_NO":"999","MEAN_ANOMALY":"291.2735","SEMIMAJOR_AXIS":"6925.341","OBJECT_ID":"2020-035AA","TIME_SYSTEM":"UTC","TLE_LINE2":"2 45681  53.0552 206.4835 0001386  68.8402 291.2735 15.06402382 96274","COUNTRY_CODE":"US","CENTER_NAME":"EARTH","RA_OF_ASC_NODE":"206.4835","MEAN_MOTION_DOT":"0.00000889","INCLINATION":"53.0552","FILE":"3312023","MEAN_ELEMENT_THEORY":"SGP4","PERIOD":"95.592","EPOCH":"2022-02-21T19:56:44.755584","MEAN_MOTION":"15.06402382","RCS_SIZE":"LARGE"},{"MEAN_MOTION":"15.06397046","EPOCH":"2022-02-21T20:07:21.940032","PERIOD":"95.592","RCS_SIZE":"LARGE","TLE_LINE2":"2 45682  53.0529 206.4547 0001640  59.0183 301.0967 15.06397046 96266","COUNTRY_CODE":"US","CENTER_NAME":"EARTH","FILE":"3312023","INCLINATION":"53.0529","MEAN_ELEMENT_THEORY":"SGP4","MEAN_MOTION_DOT":"0.00000047","RA_OF_ASC_NODE":"206.4547","GP_ID":"196570024","MEAN_ANOMALY":"301.0967","TIME_SYSTEM":"UTC","OBJECT_ID":"2020-035AB","SEMIMAJOR_AXIS":"6925.358","REV_AT_EPOCH":"9626","OBJECT_NAME":"STARLINK-1397","LAUNCH_DATE":"2020-06-04","ELEMENT_SET_NO":"999","APOAPSIS":"548.358","EPHEMERIS_TYPE":"0","BSTAR":"0.00002209000000","CLASSIFICATION_TYPE":"U","NORAD_CAT_ID":"45682","DECAY_DATE":null,"TLE_LINE1":"1 45682U 20035AB  22052.83844838  .00000047  00000-0  22090-4 0  9990","SITE":"AFETR","ARG_OF_PERICENTER":"59.0183","OBJECT_TYPE":"PAYLOAD","REF_FRAME":"TEME","PERIAPSIS":"546.087","MEAN_MOTION_DDOT":"0.0000000000000","ECCENTRICITY":"0.00016400"},{"RA_OF_ASC_NODE":"206.5533","MEAN_MOTION_DOT":"-0.00000175","INCLINATION":"53.0547","FILE":"3312023","MEAN_ELEMENT_THEORY":"SGP4","TLE_LINE2":"2 45683  53.0547 206.5533 0001504  68.5774 291.5375 15.06401393 96271","COUNTRY_CODE":"US","CENTER_NAME":"EARTH","RCS_SIZE":"LARGE","EPOCH":"2022-02-21T19:40:49.506816","PERIOD":"95.592","MEAN_MOTION":"15.06401393","MEAN_MOTION_DDOT":"0.0000000000000","ECCENTRICITY":"0.00015040","REF_FRAME":"TEME","OBJECT_TYPE":"PAYLOAD","PERIAPSIS":"546.168","TLE_LINE1":"1 45683U 20035AC  22052.82001744 -.00000175  00000-0  71512-5 0  9998","SITE":"AFETR","ARG_OF_PERICENTER":"68.5774","EPHEMERIS_TYPE":"0","APOAPSIS":"548.251","NORAD_CAT_ID":"45683","DECAY_DATE":null,"CLASSIFICATION_TYPE":"U","BSTAR":"0.00000715120000","LAUNCH_DATE":"2020-06-04","REV_AT_EPOCH":"9627","OBJECT_NAME":"STARLINK-1399","ELEMENT_SET_NO":"999","MEAN_ANOMALY":"291.5375","SEMIMAJOR_AXIS":"6925.344","OBJECT_ID":"2020-035AC","TIME_SYSTEM":"UTC","GP_ID":"196570273"},{"SITE":"AFETR","TLE_LINE1":"1 45684U 20035AD  22052.86425399  .00000660  00000-0  63197-4 0  9996","ARG_OF_PERICENTER":"74.3640","APOAPSIS":"548.260","EPHEMERIS_TYPE":"0","NORAD_CAT_ID":"45684","DECAY_DATE":null,"CLASSIFICATION_TYPE":"U","BSTAR":"0.00006319700000","MEAN_MOTION_DDOT":"0.0000000000000","ECCENTRICITY":"0.00015220","REF_FRAME":"TEME","OBJECT_TYPE":"PAYLOAD","PERIAPSIS":"546.152","GP_ID":"196570522","LAUNCH_DATE":"2020-06-04","REV_AT_EPOCH":"9628","OBJECT_NAME":"STARLINK-1401","ELEMENT_SET_NO":"999","MEAN_ANOMALY":"285.7517","SEMIMAJOR_AXIS":"6925.341","TIME_SYSTEM":"UTC","OBJECT_ID":"2020-035AD","TLE_LINE2":"2 45684  53.0540 206.3448 0001522  74.3640 285.7517 15.06402459 96283","CENTER_NAME":"EARTH","COUNTRY_CODE":"US","RA_OF_ASC_NODE":"206.3448","MEAN_MOTION_DOT":"0.00000660","INCLINATION":"53.0540","FILE":"3312023","MEAN_ELEMENT_THEORY":"SGP4","EPOCH":"2022-02-21T20:44:31.544736","PERIOD":"95.592","MEAN_MOTION":"15.06402459","RCS_SIZE":"LARGE"},{"MEAN_MOTION_DDOT":"0.0000000000000","ECCENTRICITY":"0.00017750","REF_FRAME":"TEME","OBJECT_TYPE":"PAYLOAD","PERIAPSIS":"545.999","SITE":"AFETR","TLE_LINE1":"1 45685U 20035AE  22052.86056828  .00001073  00000-0  90954-4 0  9994","ARG_OF_PERICENTER":"71.1886","APOAPSIS":"548.458","EPHEMERIS_TYPE":"0","NORAD_CAT_ID":"45685","DECAY_DATE":null,"BSTAR":"0.00009095400000","CLASSIFICATION_TYPE":"U","LAUNCH_DATE":"2020-06-04","OBJECT_NAME":"STARLINK-1402","REV_AT_EPOCH":"9628","ELEMENT_SET_NO":"999","MEAN_ANOMALY":"288.9296","SEMIMAJOR_AXIS":"6925.363","OBJECT_ID":"2020-035AE","TIME_SYSTEM":"UTC","GP_ID":"196570777","RA_OF_ASC_NODE":"206.3763","MEAN_MOTION_DOT":"0.00001073","INCLINATION":"53.0545","FILE":"3312023","MEAN_ELEMENT_THEORY":"SGP4","TLE_LINE2":"2 45685  53.0545 206.3763 0001775  71.1886 288.9296 15.06395136 96288","COUNTRY_CODE":"US","CENTER_NAME":"EARTH","RCS_SIZE":"LARGE","EPOCH":"2022-02-21T20:39:13.099392","PERIOD":"95.592","MEAN_MOTION":"15.06395136"},{"DECAY_DATE":null,"NORAD_CAT_ID":"45686","BSTAR":"-0.00008318100000","CLASSIFICATION_TYPE":"U","APOAPSIS":"548.266","EPHEMERIS_TYPE":"0","ARG_OF_PERICENTER":"62.9602","TLE_LINE1":"1 45686U 20035AF  22052.78685219 -.00001520  00000-0 -83181-4 0  9991","SITE":"AFETR","PERIAPSIS":"546.223","OBJECT_TYPE":"PAYLOAD","REF_FRAME":"TEME","ECCENTRICITY":"0.00014750","MEAN_MOTION_DDOT":"0.0000000000000","GP_ID":"196569524","SEMIMAJOR_AXIS":"6925.379","OBJECT_ID":"2020-035AF","TIME_SYSTEM":"UTC","MEAN_ANOMALY":"297.1537","ELEMENT_SET_NO":"999","LAUNCH_DATE":"2020-06-04","REV_AT_EPOCH":"9627","OBJECT_NAME":"STARLINK-1404","COUNTRY_CODE":"US","CENTER_NAME":"EARTH","TLE_LINE2":"2 45686  53.0539 206.6914 0001475  62.9602 297.1537 15.06389961 96272","MEAN_ELEMENT_THEORY":"SGP4","INCLINATION":"53.0539","FILE":"3312023","RA_OF_ASC_NODE":"206.6914","MEAN_MOTION_DOT":"-0.00001520","PERIOD":"95.593","EPOCH":"2022-02-21T18:53:04.029216","MEAN_MOTION":"15.06389961","RCS_SIZE":"LARGE"},{"RCS_SIZE":"LARGE","MEAN_MOTION":"15.90666565","PERIOD":"90.528","EPOCH":"2022-02-21T17:08:52.427616","MEAN_MOTION_DOT":"0.00131778","RA_OF_ASC_NODE":"167.9848","MEAN_ELEMENT_THEORY":"SGP4","FILE":"3312023","INCLINATION":"53.0109","COUNTRY_CODE":"US","CENTER_NAME":"EARTH","TLE_LINE2":"2 45687  53.0109 167.9848 0003814 326.1581  33.9200 15.90666565 96770","ELEMENT_SET_NO":"999","REV_AT_EPOCH":"9677","OBJECT_NAME":"STARLINK-1406","LAUNCH_DATE":"2020-06-04","TIME_SYSTEM":"UTC","OBJECT_ID":"2020-035AG","SEMIMAJOR_AXIS":"6678.553","MEAN_ANOMALY":"33.9200","GP_ID":"196569773","ECCENTRICITY":"0.00038140","MEAN_MOTION_DDOT":"0.0000174730000","PERIAPSIS":"297.871","OBJECT_TYPE":"PAYLOAD","REF_FRAME":"TEME","ARG_OF_PERICENTER":"326.1581","SITE":"AFETR","TLE_LINE1":"1 45687U 20035AG  22052.71449569  .00131778  17473-4  42569-3 0  9998","CLASSIFICATION_TYPE":"U","BSTAR":"0.00042569000000","DECAY_DATE":null,"NORAD_CAT_ID":"45687","APOAPSIS":"302.966","EPHEMERIS_TYPE":"0"},{"SEMIMAJOR_AXIS":"6925.377","TIME_SYSTEM":"UTC","OBJECT_ID":"2020-035AH","MEAN_ANOMALY":"296.1640","ELEMENT_SET_NO":"999","LAUNCH_DATE":"2020-06-04","REV_AT_EPOCH":"9627","OBJECT_NAME":"STARLINK-1408","GP_ID":"196571023","PERIAPSIS":"546.120","REF_FRAME":"TEME","OBJECT_TYPE":"PAYLOAD","ECCENTRICITY":"0.00016190","MEAN_MOTION_DDOT":"0.0000000000000","DECAY_DATE":null,"NORAD_CAT_ID":"45688","CLASSIFICATION_TYPE":"U","BSTAR":"0.00004045200000","EPHEMERIS_TYPE":"0","APOAPSIS":"548.363","ARG_OF_PERICENTER":"63.9516","SITE":"AFETR","TLE_LINE1":"1 45688U 20035AH  22052.84582620  .00000321  00000-0  40452-4 0  9992","RCS_SIZE":"LARGE","PERIOD":"95.593","EPOCH":"2022-02-21T20:17:59.383680","MEAN_MOTION":"15.06390820","MEAN_ELEMENT_THEORY":"SGP4","INCLINATION":"53.0534","FILE":"3312023","RA_OF_ASC_NODE":"206.4175","MEAN_MOTION_DOT":"0.00000321","CENTER_NAME":"EARTH","COUNTRY_CODE":"US","TLE_LINE2":"2 45688  53.0534 206.4175 0001619  63.9516 296.1640 15.06390820 96271"}];
